HST                     
1 20580U 90037B   21262.46804931  .00000572  00000-0  23558-4 0  9993
2 20580  28.4693 162.9701 0002620 359.6120 163.2219 15.09739186525219
POLAR                   
1 23802U 96013A   21261.16277483  .00000202  00000-0  00000-0 0  9998
2 23802  78.7217 244.4156 5950777 268.0965  27.0549  1.29847023122357
SWAS                    
1 25560U 98071A   21262.41993671  .00000189  00000-0  26166-4 0  9999
2 25560  69.8986 308.6568 0008236 346.0814  14.0113 14.94143259237539
CXO                     
1 25867U 99040B   21263.31488134  .00000720  00000-0  00000+0 0  9994
2 25867  52.7757 251.1561 8461965 227.1892   0.7198  0.37808221 21935
XMM-NEWTON              
1 25989U 99066A   21264.24939043 -.00000024  00000-0  00000+0 0  9998
2 25989  70.6570 310.0188 6435592  89.5103   0.0458  0.50137015 28695
TERRA                   
1 25994U 99068A   21262.58687427  .00000051  00000-0  21310-4 0  9998
2 25994  98.1694 335.2556 0001413  93.4245  12.3580 14.57129324157058
CLUSTER II-FM7 (SAMBA)  
1 26410U 00041A   21264.73186591 -.00000095  00000-0  00000-0 0  9998
2 26410 133.1208 345.3024 5092882 194.0896   0.1678  0.44196135 12621
CLUSTER II-FM6 (SALSA)  
1 26411U 00041B   21264.72633165 -.00000236  00000-0  00000-0 0  9999
2 26411 134.2093 347.4771 6636194 198.7105   0.1520  0.44214606 12667
CLUSTER II-FM5 (RUMBA)  
1 26463U 00045A   21264.72976552 -.00000136  00000-0  00000-0 0  9999
2 26463 137.8347 347.5735 6180817 199.1458   0.1954  0.44215023 12551
CLUSTER II-FM8 (TANGO)  
1 26464U 00045B   21264.73127351 -.00000095  00000-0  00000-0 0  9990
2 26464 133.1105 345.2969 5088843 194.0734   0.1914  0.44219387 12635
ODIN                    
1 26702U 01007A   21262.06837421  .00000670  00000-0  46760-4 0  9999
2 26702  97.5361 276.8886 0011805 133.6059 226.6151 15.08652647125349
TIMED                   
1 26998U 01055B   21261.97755801  .00000153  00000-0  20599-4 0  9997
2 26998  74.0707 100.3107 0000599 341.8872  18.2287 14.88345637 72612
RHESSI                  
1 27370U 02004A   21262.41173998  .00003355  00000-0  98155-4 0  9998
2 27370  38.0317 240.8375 0010288 141.6148 218.5358 15.35763521 84840
INTEGRAL                
1 27540U 02048A   21262.24938979 -.00000297  00000-0  00000-0 0  9995
2 27540  67.1414  77.6085 8984186 299.9306 163.6141  0.37565382 20135
CORIOLIS                
1 27640U 03001A   21262.51617709  .00000018  00000-0  29470-4 0  9997
2 27640  98.7231 270.8253 0014659 152.8991   0.3799 14.19081895968544
SORCE                   
1 27651U 03004A   21262.53787462  .00000159  00000-0  30547-4 0  9991
2 27651  39.9954 289.4033 0022749   6.3349 353.7724 14.89369944 12663
MOST                    
1 27843U 03031D   21262.48246922  .00000006  00000-0  23310-4 0  9990
2 27843  98.7107 269.0701 0009494 203.9462 156.1275 14.20644804944776
SCISAT 1                
1 27858U 03036A   21262.52521774  .00000073  00000-0  15289-4 0  9997
2 27858  73.9355 358.9122 0006595 101.0945 259.0971 14.77371804975410
SWIFT                   
1 28485U 04047A   21262.54836834  .00001105  00000-0  44449-4 0  9992
2 28485  20.5573  49.8299 0011130 106.0031 254.1630 15.05129584922665
FORMOSAT-3 FM6          
1 29047U 06011A   21262.41156713  .00000077  00000-0  46514-4 0  9999
2 29047  71.9762 253.1541 0050970 347.8009  12.1889 14.28836039806848
FORMOSAT-3 FM1          
1 29048U 06011B   21262.44155559  .00000104  00000-0  57305-4 0  9991
2 29048  71.9668 163.4716 0045256 307.8127  51.8916 14.28802008809325
FORMOSAT-3 FM5          
1 29049U 06011C   21262.48766793  .00000072  00000-0  44725-4 0  9990
2 29049  72.0222 337.6385 0036162 329.0017  30.8985 14.28883899805125
FORMOSAT-3 FM3          
1 29050U 06011D   21262.24108123  .00000205  00000-0  53251-4 0  9995
2 29050  72.0146  77.2736 0050661 212.6269 147.1752 14.59114740823226
FORMOSAT-3 FM4          
1 29051U 06011E   21262.19669803  .00000053  00000-0  36536-4 0  9995
2 29051  72.0034 239.3909 0069321 213.0803 146.5989 14.28915716807661
FORMOSAT-3 FM2          
1 29052U 06011F   21262.51243925  .00000098  00000-0  54568-4 0  9999
2 29052  72.0346 314.3292 0042238 289.0257  70.6306 14.29025363805200
CLOUDSAT                
1 29107U 06016A   21262.59899440  .00000200  00000-0  48832-4 0  9994
2 29107  98.2872 215.9169 0004363  74.2578 285.9104 14.62720239819439
CALIPSO                 
1 29108U 06016B   21262.58223616  .00000144  00000-0  37862-4 0  9998
2 29108  98.2843 215.6023 0001337  83.3391 276.7962 14.62592141819424
HINODE (SOLAR-B)        
1 29479U 06041A   21262.29971274  .00000082  00000-0  24535-4 0  9999
2 29479  98.1352 275.7781 0019198   3.5006 356.6328 14.64589007801062
SJ-6C                   
1 29505U 06046A   21262.52526179  .00000264  00000-0  29252-4 0  9993
2 29505  97.7978 280.2255 0003596 319.8465  40.2500 14.95246795812209
SJ-6D                   
1 29506U 06046B   21262.58784819 -.00000115  00000-0 -55268-5 0  9991
2 29506  97.8179 280.5126 0003137  59.5147 300.6380 14.93636627811708
AGILE                   
1 31135U 07013A   21262.33450489  .00003113  00000-0  57074-4 0  9998
2 31135   2.4665 202.1343 0011137 157.7373 202.3165 15.33997898435204
AIM                     
1 31304U 07015A   21262.48258116  .00001301  00000-0  74079-4 0  9998
2 31304  97.8587 167.3055 0003868 212.7739 147.3253 15.14714093790141
FGRST (GLAST)           
1 33053U 08029A   21262.28709472  .00000581  00000-0  16335-4 0  9991
2 33053  25.5818 215.1878 0011905 279.3025  80.6164 15.11590463732610
WISE                    
1 36119U 09071A   21262.54589637  .00001193  00000-0  42082-4 0  9991
2 36119  97.2769 297.3710 0002846 151.3143 208.8255 15.31189092654025
SDO                     
1 36395U 10005A   21262.59569215 -.00000073  00000-0  00000-0 0  9998
2 36395  31.1348 113.6468 0000449 265.6956  92.0362  1.00274847 42699
CRYOSAT 2               
1 36508U 10013A   21262.60558659  .00000006  00000-0  60799-6 0  9997
2 36508  92.0187 218.5199 0008236  88.8481 271.3670 14.51904388606834
X-SAT                   
1 37389U 11015C   21262.43295403 -.00000054  00000-0 -54927-5 0  9994
2 37389  98.3743 303.9430 0014741  31.0612 329.1437 14.24390134541626
GCOM-W1 (SHIZUKU)       
1 38337U 12025A   21262.62014469  .00000050  00000-0  21074-4 0  9992
2 38337  98.2135 201.9739 0001396  42.3678 130.7671 14.57118280496870
NUSTAR                  
1 38358U 12031A   21262.36742063  .00001095  00000-0  40322-4 0  9998
2 38358   6.0258 174.7395 0011253  24.5496 335.5168 14.88608301504388
NEOSSAT                 
1 39089U 13009D   21262.28957909  .00000062  00000-0  37169-4 0  9992
2 39089  98.4376 100.1606 0011541  10.0268 350.1146 14.34583230448336
IRIS                    
1 39197U 13033A   21262.49894870  .00000125  00000-0  24127-4 0  9999
2 39197  97.9683  85.8586 0027463 182.7031 177.4036 14.78896718443948
HISAKI (SPRINT-A)       
1 39253U 13049A   21262.59084876  .00000084  00000-0  29149-4 0  9990
2 39253  29.7215  21.1763 0137308  22.1071 338.5353 13.55249076396331
CASSIOPE                
1 39265U 13055A   21262.51925172  .00006911  00000-0  18926-3 0  9990
2 39265  80.9686 193.2701 0646605  37.6261 326.8376 14.33014400413462
STSAT-3                 
1 39422U 13066G   21262.47907850  .00000777  00000-0  85551-4 0  9998
2 39422  97.4781 277.3007 0024524 104.4689 255.9255 14.90018808425488
SWARM B                 
1 39451U 13067A   21262.61192312  .00000427  00000-0  17084-4 0  9994
2 39451  87.7545 142.5196 0001557  89.9228 270.2196 15.22126870419740
SWARM A                 
1 39452U 13067B   21262.55184108  .00001761  00000-0  35165-4 0  9994
2 39452  87.3613 323.4635 0003310  80.5346 279.6286 15.46013036440076
SWARM C                 
1 39453U 13067C   21262.55181375  .00001774  00000-0  35432-4 0  9999
2 39453  87.3469 323.4865 0003361  81.8208 278.3432 15.46011235440032
BRITE-CA1 (TORONTO)     
1 40020U 14033L   21262.47400975  .00000054  00000-0  17440-4 0  9995
2 40020  97.7510  70.7859 0088304  48.5522 312.3225 14.66769884387939
OCO 2                   
1 40059U 14035A   21262.58399690  .00000037  00000-0  18327-4 0  9998
2 40059  98.2142 202.6827 0001233  89.3014 270.8325 14.57104830383887
BRITE-PL2 (HEWELIUSZ)   
1 40119U 14049B   21262.51307875  .00000171  00000-0  26505-4 0  9993
2 40119  97.8884 356.0164 0018420  51.7886 308.4983 14.84701315383896
RESURS P2               
1 40360U 14087A   21262.41774399  .00001177  00000-0  37499-4 0  9992
2 40360  97.2253 347.9707 0009150 352.6095  74.6644 15.34500573376678
MMS 1                   
1 40482U 15011C   21258.42058084 -.00001860  00000-0  00000+0 0  9990
2 40482  33.5007 114.6989 8436997  37.2833  47.6472  0.28495839 12515
MMS 2                   
1 40483U 15011A   21258.46668899 -.00001857  00000-0  00000+0 0  9992
2 40483  33.5068 114.6905 8434770  37.2948  52.3509  0.28491614 12493
MMS 3                   
1 40484U 15011C   21258.46668899 -.00001860  00000-0  00000+0 0  9997
2 40484  33.4821 114.6504 8437754  37.3586  52.3120  0.28489266 12498
MMS 4                   
1 40485U 15011D   21258.42057985 -.00001860  00000-0  00000+0 0  9992
2 40485  33.5009 114.7085 8435900  37.2916  47.5998  0.28495883 12491
ASTROSAT                
1 40930U 15052A   21262.33249098  .00000788  00000-0  21485-4 0  9997
2 40930   5.9968 311.3101 0009149 278.9201  80.9891 14.76397984323019
DAMPE                   
1 41173U 15078A   21262.53568703  .00000182  00000-0  10396-4 0  9991
2 41173  97.3560 252.9102 0015500  75.3727  19.7324 15.24053927320314
PISAT                   
1 41784U 16059B   21262.37297643  .00000103  00000-0  28754-4 0  9993
2 41784  97.9581 310.7198 0030740 307.4743  52.3665 14.63659583266030
HXMT (HUIYAN)           
1 42758U 17034A   21262.55834841  .00000510  00000-0  45004-4 0  9995
2 42758  43.0176  36.5417 0008383  18.3434  76.7768 15.09310585235233
FLYING LAPTOP           
1 42831U 17042G   21262.56351976 -.00000039  00000-0  12747-5 0  9996
2 42831  97.4565 127.2874 0013604 187.1530 172.9528 14.91345582227711
PICSAT                  
1 43132U 18004X   21262.47918263  .00002193  00000-0  87345-4 0  9995
2 43132  97.4036 336.1725 0007626 229.3645 130.6931 15.26285537205029
ZHANGZHENG-1 (CSES)     
1 43194U 18015C   21262.53111292  .00001798  00000-0  83931-4 0  9996
2 43194  97.4898  29.2856 0011314 307.2925 119.7949 15.21096570201445
ICON                    
1 44628U 19068A   21262.46235571  .00000632  00000-0  41183-4 0  9996
2 44628  26.9895 278.3194 0018430 278.9875  80.8597 14.92025841106045
SALSAT                  
1 46495U 20068K   21262.63340953  .00001242  00000-0  95235-4 0  9997
2 46495  97.6969 199.5938 0018143 112.6739 247.6408 15.03557507 53485
